$$SOE
2461295.500000000, A.D. 2026-Sep-12 00:00:00.0000, 5.736189872249473E+06, -4.104718037119009E+08, -8.671496528143436E+06,
2461302.500000000, A.D. 2026-Sep-19 00:00:00.0000, 1.682357280254408E+07, -4.095706129514786E+08, -8.549783433205754E+06,
2461309.500000000, A.D. 2026-Sep-26 00:00:00.0000, 2.789911733964845E+07, -4.083809903102155E+08, -8.422048620527208E+06,
2461316.500000000, A.D. 2026-Oct-03 00:00:00.0000, 3.895493781558371E+07, -4.069025402914535E+08, -8.288356509988278E+06,
2461323.500000000, A.D. 2026-Oct-10 00:00:00.0000, 4.998309798517722E+07, -4.051351007484288E+08, -8.148776978331894E+06,
2461330.500000000, A.D. 2026-Oct-17 00:00:00.0000, 6.097561867978618E+07, -4.030787466877757E+08, -8.003385364837974E+06,
2461337.500000000, A.D. 2026-Oct-24 00:00:00.0000, 7.192448571788634E+07, -4.007337938838670E+08, -7.852262476115882E+06,
2461344.500000000, A.D. 2026-Oct-31 00:00:00.0000, 8.282165816123523E+07, -3.981008023516175E+08, -7.695494604167908E+06,
2461351.500000000, A.D. 2026-Nov-07 00:00:00.0000, 9.365907724365012E+07, -3.951805795861163E+08, -7.533173582284898E+06,
2461358.500000000, A.D. 2026-Nov-14 00:00:00.0000, 1.044286761590309E+08, -3.919741826647511E+08, -7.365396824108988E+06,
2461365.500000000, A.D. 2026-Nov-21 00:00:00.0000, 1.151223888805733E+08, -3.884829185125637E+08, -7.192267123424351E+06,
2461372.500000000, A.D. 2026-Nov-28 00:00:00.0000, 1.257321569955723E+08, -3.847083453203115E+08, -7.013892368555725E+06,
2461379.500000000, A.D. 2026-Dec-05 00:00:00.0000, 1.362499381578872E+08, -3.806522757541180E+08, -6.830385556682467E+06,
2461386.500000000, A.D. 2026-Dec-12 00:00:00.0000, 1.466677163045608E+08, -3.763167788315352E+08, -6.641864868564695E+06,
2461393.500000000, A.D. 2026-Dec-19 00:00:00.0000, 1.569775117288227E+08, -3.717041804447979E+08, -6.448453629644603E+06,
2461400.500000000, A.D. 2026-Dec-26 00:00:00.0000, 1.671713908450051E+08, -3.668170633870166E+08, -6.250280215067074E+06,
2461407.500000000, A.D. 2027-Jan-02 00:00:00.0000, 1.772414758977813E+08, -3.616582670611011E+08, -6.047477939284384E+06,
2461414.500000000, A.D. 2027-Jan-09 00:00:00.0000, 1.871799547076442E+08, -3.562308868415048E+08, -5.840184939187929E+06,
2461421.500000000, A.D. 2027-Jan-16 00:00:00.0000, 1.969790904612421E+08, -3.505382730712790E+08, -5.628544053297460E+06,
2461428.500000000, A.D. 2027-Jan-23 00:00:00.0000, 2.066312315649233E+08, -3.445840297262372E+08, -5.412702704657957E+06,
2461435.500000000, A.D. 2027-Jan-30 00:00:00.0000, 2.161288217217532E+08, -3.383720127880559E+08, -5.192812808838531E+06,
2461442.500000000, A.D. 2027-Feb-06 00:00:00.0000, 2.254644106293947E+08, -3.319063279837012E+08, -4.969030718402997E+06,
2461449.500000000, A.D. 2027-Feb-13 00:00:00.0000, 2.346306648100557E+08, -3.251913266720588E+08, -4.741517062127560E+06,
2461456.500000000, A.D. 2027-Feb-20 00:00:00.0000, 2.436203761782973E+08, -3.182316006700990E+08, -4.510436327170998E+06,
2461463.500000000, A.D. 2027-Feb-27 00:00:00.0000, 2.524264697119902E+08, -3.110319792326459E+08, -4.275956575516447E+06,
2461470.500000000, A.D. 2027-Mar-06 00:00:00.0000, 2.610420132161639E+08, -3.035975262654859E+08, -4.038249415063679E+06,
2461477.500000000, A.D. 2027-Mar-13 00:00:00.0000, 2.694602275526333E+08, -2.959335357288017E+08, -3.797489911662281E+06,
2461484.500000000, A.D. 2027-Mar-20 00:00:00.0000, 2.776744961790415E+08, -2.880455260744599E+08, -3.553856407233164E+06,
2461491.500000000, A.D. 2027-Mar-27 00:00:00.0000, 2.856783741726625E+08, -2.799392342766721E+08, -3.307530307898790E+06,
2461498.500000000, A.D. 2027-Apr-03 00:00:00.0000, 2.934655969158041E+08, -2.716206095164766E+08, -3.058695865135267E+06,
2461505.500000000, A.D. 2027-Apr-10 00:00:00.0000, 3.010300884782065E+08, -2.630958065120652E+08, -2.807539954146609E+06,
2461512.500000000, A.D. 2027-Apr-17 00:00:00.0000, 3.083659696919599E+08, -2.543711785261651E+08, -2.554251853177071E+06,
2461519.500000000, A.D. 2027-Apr-24 00:00:00.0000, 3.154675659704620E+08, -2.454532701296884E+08, -2.299023036834598E+06,
2461526.500000000, A.D. 2027-May-01 00:00:00.0000, 3.223294151442193E+08, -2.363488097096256E+08, -2.042047009556442E+06,
2461533.500000000, A.D. 2027-May-08 00:00:00.0000, 3.289462755986153E+08, -2.270647009891466E+08, -1.783519147071511E+06,
2461540.500000000, A.D. 2027-May-15 00:00:00.0000, 3.353131331995624E+08, -2.176080126270392E+08, -1.523636331257746E+06,
2461547.500000000, A.D. 2027-May-22 00:00:00.0000, 3.414252054272023E+08, -2.079859685122640E+08, -1.262596447419941E+06,
2461554.500000000, A.D. 2027-May-29 00:00:00.0000, 3.472779460577379E+08, -1.982059402467490E+08, -1.000598172473982E+06,
2461561.500000000, A.D. 2027-Jun-05 00:00:00.0000, 3.528670512647673E+08, -1.882754387113801E+08, -7.378408796987087E+05,
2461568.500000000, A.D. 2027-Jun-12 00:00:00.0000, 3.581884651204670E+08, -1.782021043123315E+08, -4.745244409672990E+05,
2461575.500000000, A.D. 2027-Jun-19 00:00:00.0000, 3.632383841537277E+08, -1.679936968717211E+08, -2.108489729287028E+05,
2461582.500000000, A.D. 2027-Jun-26 00:00:00.0000, 3.680132612340842E+08, -1.576580854522057E+08, 5.298542538052052E+04,
2461589.500000000, A.D. 2027-Jul-03 00:00:00.0000, 3.725098089052555E+08, -1.472032381353408E+08, 3.167789315672517E+05,
2461596.500000000, A.D. 2027-Jul-10 00:00:00.0000, 3.767250021993296E+08, -1.366372117734149E+08, 5.803322524465993E+05,
2461603.500000000, A.D. 2027-Jul-17 00:00:00.0000, 3.806560809642953E+08, -1.259681417826476E+08, 8.434468632055596E+05,
2461610.500000000, A.D. 2027-Jul-24 00:00:00.0000, 3.843005518588651E+08, -1.152042320697669E+08, 1.105925213154383E+06,
2461617.500000000, A.D. 2027-Jul-31 00:00:00.0000, 3.876561904245658E+08, -1.043537448842747E+08, 1.367570878964998E+06,
2461624.500000000, A.D. 2027-Aug-07 00:00:00.0000, 3.907210430372406E+08, -9.342498947102229E+07, 1.628188777617533E+06,
2461631.500000000, A.D. 2027-Aug-14 00:00:00.0000, 3.934934264451791E+08, -8.242630980513960E+07, 1.887585629374139E+06,
2461638.500000000, A.D. 2027-Aug-21 00:00:00.0000, 3.959719255193104E+08, -7.136607480407479E+07, 2.145570338636853E+06,
2461645.500000000, A.D. 2027-Aug-28 00:00:00.0000, 3.981553926515442E+08, -6.025266984085098E+07, 2.401954075491216E+06,
2461652.500000000, A.D. 2027-Sep-04 00:00:00.0000, 4.000429476284810E+08, -4.909448708145860E+07, 2.656550370139431E+06,
2461659.500000000, A.D. 2027-Sep-11 00:00:00.0000, 4.016339765964422E+08, -3.789991533303511E+07, 2.909175293617971E+06,
2461666.500000000, A.D. 2027-Sep-18 00:00:00.0000, 4.029281302630020E+08, -2.667733007747290E+07, 3.159647658843970E+06,
2461673.500000000, A.D. 2027-Sep-25 00:00:00.0000, 4.039253215766224E+08, -1.543508379065821E+07, 3.407789214015676E+06,
2461680.500000000, A.D. 2027-Oct-02 00:00:00.0000, 4.046257229736299E+08, -4.181496540211780E+06, 3.653424823123295E+06,
2461687.500000000, A.D. 2027-Oct-09 00:00:00.0000, 4.050297632313329E+08, 7.075153115257999E+06, 3.896382630605133E+06,
2461694.500000000, A.D. 2027-Oct-16 00:00:00.0000, 4.051381240091602E+08, 1.832663685319700E+07, 4.136494199416978E+06,
2461701.500000000, A.D. 2027-Oct-23 00:00:00.0000, 4.049517363576403E+08, 2.956478491771851E+07, 4.373594597734487E+06,
2461708.500000000, A.D. 2027-Oct-30 00:00:00.0000, 4.044717775887530E+08, 4.078149464815675E+07, 4.607522449259736E+06,
2461715.500000000, A.D. 2027-Nov-06 00:00:00.0000, 4.036996673640028E+08, 5.196874032139909E+07, 4.838120145941012E+06,
2461722.500000000, A.D. 2027-Nov-13 00:00:00.0000, 4.026370610401244E+08, 6.311858222018440E+07, 5.065234235917039E+06,
2461729.500000000, A.D. 2027-Nov-20 00:00:00.0000, 4.012858431980380E+08, 7.422317272749966E+07, 5.288715541789770E+06,
2461736.500000000, A.D. 2027-Nov-27 00:00:00.0000, 3.996481229913000E+08, 8.527476240043576E+07, 5.508419102834288E+06,
2461743.500000000, A.D. 2027-Dec-04 00:00:00.0000, 3.977262293105863E+08, 9.626570693015662E+07, 5.724204201527089E+06,
2461750.500000000, A.D. 2027-Dec-11 00:00:00.0000, 3.955227052357235E+08, 1.071884740181179E+08, 5.935934446366429E+06,
2461757.500000000, A.D. 2027-Dec-18 00:00:00.0000, 3.930403020725817E+08, 1.180356498245974E+08, 6.143477858323537E+06,
2461764.500000000, A.D. 2027-Dec-25 00:00:00.0000, 3.902819731489904E+08, 1.287999449836119E+08, 6.346706947082400E+06,
2461771.500000000, A.D. 2028-Jan-01 00:00:00.0000, 3.872508674328043E+08, 1.394742001958281E+08, 6.545498774719305E+06,
$$EOE